IRIDIUM 106             
1 41917U 17003A   25196.53215457  .00000005  00000+0 -51570-5 0  9996
2 41917  86.3953 229.1573 0001809  90.0116 270.1287 14.34217674444954
IRIDIUM 103             
1 41918U 17003B   25196.58923941  .00000013  00000+0 -23361-5 0  9992
2 41918  86.3953 229.0343 0002482  77.9410 282.2064 14.34217697444983
IRIDIUM 109             
1 41919U 17003C   25196.59558178  .00000014  00000+0 -18985-5 0  9997
2 41919  86.3959 229.0854 0002345  89.9536 270.1928 14.34217579444958
IRIDIUM 102             
1 41920U 17003D   25196.63363765  .00000007  00000+0 -44987-5 0  9993
2 41920  86.3958 229.0002 0002297  94.0137 266.1322 14.34217515445048
IRIDIUM 105             
1 41921U 17003E   25196.74391011  .00000021  00000+0  27688-6 0  9996
2 41921  86.3985 197.4302 0002384  84.5561 275.5906 14.34217172446910
IRIDIUM 104             
1 41922U 17003F   25196.57655479  .00000009  00000+0 -39282-5 0  9998
2 41922  86.3958 229.0615 0002575  86.5399 273.6091 14.34217518445022
IRIDIUM 114             
1 41923U 17003G   25196.58289666  .00000047  00000+0  96289-5 0  9992
2 41923  86.3953 229.0434 0002310  84.8722 275.2737 14.34217660445006
IRIDIUM 108             
1 41924U 17003H   25196.54141709  .00000030  00000+0  35280-5 0  9990
2 41924  86.3981 197.4144 0002157  92.4932 267.6510 14.34217819446877
